ONEWEB-0056             
1 45159U 20008AE  25145.85477284 -.00002676  00000+0 -77074-2 0  9995
2 45159  87.8829 113.4898 0001613  81.5850 278.5460 13.10353524257452
ONEWEB-0057             
1 45160U 20008AF  25145.86220966 -.00000636  00000+0 -18582-2 0  9994
2 45160  87.8812 113.5037 0002049  78.6019 281.5338 13.10373236257629
ONEWEB-0058             
1 45161U 20008AG  25145.84907186 -.00000430  00000+0 -12671-2 0  9994
2 45161  87.8802 113.5207 0001921  86.9353 273.1994 13.10369851257699
ONEWEB-0059             
1 45162U 20008AH  25145.61654657 -.00000303  00000+0 -90574-3 0  9990
2 45162  87.8805 113.5629 0001967  87.4963 272.6389 13.10370548257567
ONEWEB-0062             
1 45163U 20008AJ  25145.87133583 -.00000606  00000+0 -17727-2 0  9993
2 45163  87.8810 113.4928 0002245  92.1410 267.9974 13.10375570257461
ONEWEB-0065             
1 45164U 20008AK  25145.62152191 -.00000502  00000+0 -14739-2 0  9998
2 45164  87.8811 113.5639 0002021  79.9386 280.1969 13.10371896257121
ONEWEB-0066             
1 45424U 20020A   25145.86430329  .00000394  00000+0  10762-2 0  9998
2 45424  87.8829  98.2632 0001651  79.3351 280.7963 13.11415196251919
ONEWEB-0067             
1 45425U 20020B   25145.82541572 -.00000588  00000+0 -16938-2 0  9996
2 45425  87.8819  98.1896 0001868  77.2951 282.8386 13.11418004251961
