<?xml version="1.0" encoding="UTF-8"?>
<ndm xmlns:xsi="http://www.w3.org/2001/XMLSchema-instance" xsi:noNamespaceSchemaLocation="https://sanaregistry.org/r/ndmxml_unqualified/ndmxml-2.0.0-master-2.0.xsd">
<omm id="CCSDS_OMM_VERS" version="2.0">
<header><CREATION_DATE/><ORIGINATOR/></header><body><segment><metadata><OBJECT_NAME>ONEWEB-0056</OBJECT_NAME><OBJECT_ID>2020-008AE</OBJECT_ID><CENTER_NAME>EARTH</CENTER_NAME><REF_FRAME>TEME</REF_FRAME><TIME_SYSTEM>UTC</TIME_SYSTEM><MEAN_ELEMENT_THEORY>SGP4</MEAN_ELEMENT_THEORY></metadata><data><meanElements><EPOCH>2025-05-25T20:30:52.373376</EPOCH><MEAN_MOTION>13.10353524</MEAN_MOTION><ECCENTRICITY>.0001613</ECCENTRICITY><INCLINATION>87.8829</INCLINATION><RA_OF_ASC_NODE>113.4898</RA_OF_ASC_NODE><ARG_OF_PERICENTER>81.5850</ARG_OF_PERICENTER><MEAN_ANOMALY>278.5460</MEAN_ANOMALY></meanElements><tleParameters><EPHEMERIS_TYPE>0</EPHEMERIS_TYPE><CLASSIFICATION_TYPE>U</CLASSIFICATION_TYPE><NORAD_CAT_ID>45159</NORAD_CAT_ID><ELEMENT_SET_NO>999</ELEMENT_SET_NO><REV_AT_EPOCH>25745</REV_AT_EPOCH><BSTAR>-.77074E-2</BSTAR><MEAN_MOTION_DOT>-.2676E-4</MEAN_MOTION_DOT><MEAN_MOTION_DDOT>0</MEAN_MOTION_DDOT></tleParameters></data></segment></body></omm>
<omm id="CCSDS_OMM_VERS" version="2.0">
<header><CREATION_DATE/><ORIGINATOR/></header><body><segment><metadata><OBJECT_NAME>ONEWEB-0057</OBJECT_NAME><OBJECT_ID>2020-008AF</OBJECT_ID><CENTER_NAME>EARTH</CENTER_NAME><REF_FRAME>TEME</REF_FRAME><TIME_SYSTEM>UTC</TIME_SYSTEM><MEAN_ELEMENT_THEORY>SGP4</MEAN_ELEMENT_THEORY></metadata><data><meanElements><EPOCH>2025-05-25T20:41:34.914624</EPOCH><MEAN_MOTION>13.10373236</MEAN_MOTION><ECCENTRICITY>.0002049</ECCENTRICITY><INCLINATION>87.8812</INCLINATION><RA_OF_ASC_NODE>113.5037</RA_OF_ASC_NODE><ARG_OF_PERICENTER>78.6019</ARG_OF_PERICENTER><MEAN_ANOMALY>281.5338</MEAN_ANOMALY></meanElements><tleParameters><EPHEMERIS_TYPE>0</EPHEMERIS_TYPE><CLASSIFICATION_TYPE>U</CLASSIFICATION_TYPE><NORAD_CAT_ID>45160</NORAD_CAT_ID><ELEMENT_SET_NO>999</ELEMENT_SET_NO><REV_AT_EPOCH>25762</REV_AT_EPOCH><BSTAR>-.18582E-2</BSTAR><MEAN_MOTION_DOT>-.636E-5</MEAN_MOTION_DOT><MEAN_MOTION_DDOT>0</MEAN_MOTION_DDOT></tleParameters></data></segment></body></omm>
<omm id="CCSDS_OMM_VERS" version="2.0">
<header><CREATION_DATE/><ORIGINATOR/></header><body><segment><metadata><OBJECT_NAME>ONEWEB-0058</OBJECT_NAME><OBJECT_ID>2020-008AG</OBJECT_ID><CENTER_NAME>EARTH</CENTER_NAME><REF_FRAME>TEME</REF_FRAME><TIME_SYSTEM>UTC</TIME_SYSTEM><MEAN_ELEMENT_THEORY>SGP4</MEAN_ELEMENT_THEORY></metadata><data><meanElements><EPOCH>2025-05-25T20:22:39.808704</EPOCH><MEAN_MOTION>13.10369851</MEAN_MOTION><ECCENTRICITY>.0001921</ECCENTRICITY><INCLINATION>87.8802</INCLINATION><RA_OF_ASC_NODE>113.5207</RA_OF_ASC_NODE><ARG_OF_PERICENTER>86.9353</ARG_OF_PERICENTER><MEAN_ANOMALY>273.1994</MEAN_ANOMALY></meanElements><tleParameters><EPHEMERIS_TYPE>0</EPHEMERIS_TYPE><CLASSIFICATION_TYPE>U</CLASSIFICATION_TYPE><NORAD_CAT_ID>45161</NORAD_CAT_ID><ELEMENT_SET_NO>999</ELEMENT_SET_NO><REV_AT_EPOCH>25769</REV_AT_EPOCH><BSTAR>-.12671E-2</BSTAR><MEAN_MOTION_DOT>-.43E-5</MEAN_MOTION_DOT><MEAN_MOTION_DDOT>0</MEAN_MOTION_DDOT></tleParameters></data></segment></body></omm>
<omm id="CCSDS_OMM_VERS" version="2.0">
<header><CREATION_DATE/><ORIGINATOR/></header><body><segment><metadata><OBJECT_NAME>ONEWEB-0059</OBJECT_NAME><OBJECT_ID>2020-008AH</OBJECT_ID><CENTER_NAME>EARTH</CENTER_NAME><REF_FRAME>TEME</REF_FRAME><TIME_SYSTEM>UTC</TIME_SYSTEM><MEAN_ELEMENT_THEORY>SGP4</MEAN_ELEMENT_THEORY></metadata><data><meanElements><EPOCH>2025-05-25T14:47:49.623648</EPOCH><MEAN_MOTION>13.10370548</MEAN_MOTION><ECCENTRICITY>.0001967</ECCENTRICITY><INCLINATION>87.8805</INCLINATION><RA_OF_ASC_NODE>113.5629</RA_OF_ASC_NODE><ARG_OF_PERICENTER>87.4963</ARG_OF_PERICENTER><MEAN_ANOMALY>272.6389</MEAN_ANOMALY></meanElements><tleParameters><EPHEMERIS_TYPE>0</EPHEMERIS_TYPE><CLASSIFICATION_TYPE>U</CLASSIFICATION_TYPE><NORAD_CAT_ID>45162</NORAD_CAT_ID><ELEMENT_SET_NO>999</ELEMENT_SET_NO><REV_AT_EPOCH>25756</REV_AT_EPOCH><BSTAR>-.90574E-3</BSTAR><MEAN_MOTION_DOT>-.303E-5</MEAN_MOTION_DOT><MEAN_MOTION_DDOT>0</MEAN_MOTION_DDOT></tleParameters></data></segment></body></omm>
<omm id="CCSDS_OMM_VERS" version="2.0">
<header><CREATION_DATE/><ORIGINATOR/></header><body><segment><metadata><OBJECT_NAME>ONEWEB-0062</OBJECT_NAME><OBJECT_ID>2020-008AJ</OBJECT_ID><CENTER_NAME>EARTH</CENTER_NAME><REF_FRAME>TEME</REF_FRAME><TIME_SYSTEM>UTC</TIME_SYSTEM><MEAN_ELEMENT_THEORY>SGP4</MEAN_ELEMENT_THEORY></metadata><data><meanElements><EPOCH>2025-05-25T20:54:43.415712</EPOCH><MEAN_MOTION>13.10375570</MEAN_MOTION><ECCENTRICITY>.0002245</ECCENTRICITY><INCLINATION>87.8810</INCLINATION><RA_OF_ASC_NODE>113.4928</RA_OF_ASC_NODE><ARG_OF_PERICENTER>92.1410</ARG_OF_PERICENTER><MEAN_ANOMALY>267.9974</MEAN_ANOMALY></meanElements><tleParameters><EPHEMERIS_TYPE>0</EPHEMERIS_TYPE><CLASSIFICATION_TYPE>U</CLASSIFICATION_TYPE><NORAD_CAT_ID>45163</NORAD_CAT_ID><ELEMENT_SET_NO>999</ELEMENT_SET_NO><REV_AT_EPOCH>25746</REV_AT_EPOCH><BSTAR>-.17727E-2</BSTAR><MEAN_MOTION_DOT>-.606E-5</MEAN_MOTION_DOT><MEAN_MOTION_DDOT>0</MEAN_MOTION_DDOT></tleParameters></data></segment></body></omm>
<omm id="CCSDS_OMM_VERS" version="2.0">
<header><CREATION_DATE/><ORIGINATOR/></header><body><segment><metadata><OBJECT_NAME>ONEWEB-0065</OBJECT_NAME><OBJECT_ID>2020-008AK</OBJECT_ID><CENTER_NAME>EARTH</CENTER_NAME><REF_FRAME>TEME</REF_FRAME><TIME_SYSTEM>UTC</TIME_SYSTEM><MEAN_ELEMENT_THEORY>SGP4</MEAN_ELEMENT_THEORY></metadata><data><meanElements><EPOCH>2025-05-25T14:54:59.493024</EPOCH><MEAN_MOTION>13.10371896</MEAN_MOTION><ECCENTRICITY>.0002021</ECCENTRICITY><INCLINATION>87.8811</INCLINATION><RA_OF_ASC_NODE>113.5639</RA_OF_ASC_NODE><ARG_OF_PERICENTER>79.9386</ARG_OF_PERICENTER><MEAN_ANOMALY>280.1969</MEAN_ANOMALY></meanElements><tleParameters><EPHEMERIS_TYPE>0</EPHEMERIS_TYPE><CLASSIFICATION_TYPE>U</CLASSIFICATION_TYPE><NORAD_CAT_ID>45164</NORAD_CAT_ID><ELEMENT_SET_NO>999</ELEMENT_SET_NO><REV_AT_EPOCH>25712</REV_AT_EPOCH><BSTAR>-.14739E-2</BSTAR><MEAN_MOTION_DOT>-.502E-5</MEAN_MOTION_DOT><MEAN_MOTION_DDOT>0</MEAN_MOTION_DDOT></tleParameters></data></segment></body></omm>
<omm id="CCSDS_OMM_VERS" version="2.0">
<header><CREATION_DATE/><ORIGINATOR/></header><body><segment><metadata><OBJECT_NAME>ONEWEB-0066</OBJECT_NAME><OBJECT_ID>2020-020A</OBJECT_ID><CENTER_NAME>EARTH</CENTER_NAME><REF_FRAME>TEME</REF_FRAME><TIME_SYSTEM>UTC</TIME_SYSTEM><MEAN_ELEMENT_THEORY>SGP4</MEAN_ELEMENT_THEORY></metadata><data><meanElements><EPOCH>2025-05-25T20:44:35.804256</EPOCH><MEAN_MOTION>13.11415196</MEAN_MOTION><ECCENTRICITY>.0001651</ECCENTRICITY><INCLINATION>87.8829</INCLINATION><RA_OF_ASC_NODE>98.2632</RA_OF_ASC_NODE><ARG_OF_PERICENTER>79.3351</ARG_OF_PERICENTER><MEAN_ANOMALY>280.7963</MEAN_ANOMALY></meanElements><tleParameters><EPHEMERIS_TYPE>0</EPHEMERIS_TYPE><CLASSIFICATION_TYPE>U</CLASSIFICATION_TYPE><NORAD_CAT_ID>45424</NORAD_CAT_ID><ELEMENT_SET_NO>999</ELEMENT_SET_NO><REV_AT_EPOCH>25191</REV_AT_EPOCH><BSTAR>.10762E-2</BSTAR><MEAN_MOTION_DOT>.394E-5</MEAN_MOTION_DOT><MEAN_MOTION_DDOT>0</MEAN_MOTION_DDOT></tleParameters></data></segment></body></omm>
<omm id="CCSDS_OMM_VERS" version="2.0">
<header><CREATION_DATE/><ORIGINATOR/></header><body><segment><metadata><OBJECT_NAME>ONEWEB-0067</OBJECT_NAME><OBJECT_ID>2020-020B</OBJECT_ID><CENTER_NAME>EARTH</CENTER_NAME><REF_FRAME>TEME</REF_FRAME><TIME_SYSTEM>UTC</TIME_SYSTEM><MEAN_ELEMENT_THEORY>SGP4</MEAN_ELEMENT_THEORY></metadata><data><meanElements><EPOCH>2025-05-25T19:48:35.918208</EPOCH><MEAN_MOTION>13.11418004</MEAN_MOTION><ECCENTRICITY>.0001868</ECCENTRICITY><INCLINATION>87.8819</INCLINATION><RA_OF_ASC_NODE>98.1896</RA_OF_ASC_NODE><ARG_OF_PERICENTER>77.2951</ARG_OF_PERICENTER><MEAN_ANOMALY>282.8386</MEAN_ANOMALY></meanElements><tleParameters><EPHEMERIS_TYPE>0</EPHEMERIS_TYPE><CLASSIFICATION_TYPE>U</CLASSIFICATION_TYPE><NORAD_CAT_ID>45425</NORAD_CAT_ID><ELEMENT_SET_NO>999</ELEMENT_SET_NO><REV_AT_EPOCH>25196</REV_AT_EPOCH><BSTAR>-.16938E-2</BSTAR><MEAN_MOTION_DOT>-.588E-5</MEAN_MOTION_DOT><MEAN_MOTION_DDOT>0</MEAN_MOTION_DDOT></tleParameters></data></segment></body></omm>

</ndm>
